CSS (TIANHE)            
1 48274U 21035A   24046.45868983  .00046960  00000+0  48484-3 0  9998
2 48274  41.4680 112.9988 0006898  19.2986 340.8114 15.63928025159887
